CCSDS_OMM_VERS = 2.0
CREATION_DATE  = 
ORIGINATOR     = 

OBJECT_NAME    = AQUA
OBJECT_ID      = 2002-022A
CENTER_NAME    = EARTH
REF_FRAME      = TEME
TIME_SYSTEM    = UTC
MEAN_ELEMENT_THEORY = SGP/SGP4

EPOCH          = 2026-04-03T22:36:02.830752
MEAN_MOTION    = 14.62040083
ECCENTRICITY   = .00013724
INCLINATION    = 98.4218
RA_OF_ASC_NODE = 61.7750
ARG_OF_PERICENTER = 115.7141
MEAN_ANOMALY   = 320.8374

EPHEMERIS_TYPE = 0
CLASSIFICATION_TYPE = U
NORAD_CAT_ID   = 27424
ELEMENT_SET_NO = 999
REV_AT_EPOCH   = 27242
BSTAR          = .36316475E-3
MEAN_MOTION_DOT = .1773E-4
MEAN_MOTION_DDOT = 0

CCSDS_OMM_VERS = 2.0
CREATION_DATE  = 
ORIGINATOR     = 

OBJECT_NAME    = CZ-4B R/B
OBJECT_ID      = 2002-024C
CENTER_NAME    = EARTH
REF_FRAME      = TEME
TIME_SYSTEM    = UTC
MEAN_ELEMENT_THEORY = SGP/SGP4

EPOCH          = 2026-04-03T18:25:36.006240
MEAN_MOTION    = 14.14552410
ECCENTRICITY   = .00492721
INCLINATION    = 98.8783
RA_OF_ASC_NODE = 147.0419
ARG_OF_PERICENTER = 312.6057
MEAN_ANOMALY   = 155.3358

EPHEMERIS_TYPE = 0
CLASSIFICATION_TYPE = U
NORAD_CAT_ID   = 27432
ELEMENT_SET_NO = 999
REV_AT_EPOCH   = 23278
BSTAR          = .67163142E-4
MEAN_MOTION_DOT = .86E-6
MEAN_MOTION_DDOT = 0

CCSDS_OMM_VERS = 2.0
CREATION_DATE  = 
ORIGINATOR     = 

OBJECT_NAME    = MIDORI II (ADEOS-II)
OBJECT_ID      = 2002-056A
CENTER_NAME    = EARTH
REF_FRAME      = TEME
TIME_SYSTEM    = UTC
MEAN_ELEMENT_THEORY = SGP/SGP4

EPOCH          = 2026-04-03T20:45:56.501856
MEAN_MOTION    = 14.29305855
ECCENTRICITY   = .00004226
INCLINATION    = 98.7814
RA_OF_ASC_NODE = 52.5239
ARG_OF_PERICENTER = 20.5091
MEAN_ANOMALY   = 339.6107

EPHEMERIS_TYPE = 0
CLASSIFICATION_TYPE = U
NORAD_CAT_ID   = 27597
ELEMENT_SET_NO = 999
REV_AT_EPOCH   = 21389
BSTAR          = .22634068E-3
MEAN_MOTION_DOT = .531E-5
MEAN_MOTION_DDOT = 0

CCSDS_OMM_VERS = 2.0
CREATION_DATE  = 
ORIGINATOR     = 

OBJECT_NAME    = H-2A R/B
OBJECT_ID      = 2002-056E
CENTER_NAME    = EARTH
REF_FRAME      = TEME
TIME_SYSTEM    = UTC
MEAN_ELEMENT_THEORY = SGP/SGP4

EPOCH          = 2026-04-03T21:37:14.368800
MEAN_MOTION    = 14.33779831
ECCENTRICITY   = .00714196
INCLINATION    = 98.3248
RA_OF_ASC_NODE = 53.3135
ARG_OF_PERICENTER = 86.5117
MEAN_ANOMALY   = 337.7023

EPHEMERIS_TYPE = 0
CLASSIFICATION_TYPE = U
NORAD_CAT_ID   = 27601
ELEMENT_SET_NO = 999
REV_AT_EPOCH   = 21772
BSTAR          = .20653551E-3
MEAN_MOTION_DOT = .55E-5
MEAN_MOTION_DDOT = 0

CCSDS_OMM_VERS = 2.0
CREATION_DATE  = 
ORIGINATOR     = 

OBJECT_NAME    = CZ-4B R/B
OBJECT_ID      = 2003-049C
CENTER_NAME    = EARTH
REF_FRAME      = TEME
TIME_SYSTEM    = UTC
MEAN_ELEMENT_THEORY = SGP/SGP4

EPOCH          = 2026-04-03T23:09:36.360288
MEAN_MOTION    = 14.55044733
ECCENTRICITY   = .00486571
INCLINATION    = 98.6897
RA_OF_ASC_NODE = 89.8657
ARG_OF_PERICENTER = 153.3548
MEAN_ANOMALY   = 207.0164

EPHEMERIS_TYPE = 0
CLASSIFICATION_TYPE = U
NORAD_CAT_ID   = 28059
ELEMENT_SET_NO = 999
REV_AT_EPOCH   = 19027
BSTAR          = .15362218E-3
MEAN_MOTION_DOT = .621E-5
MEAN_MOTION_DDOT = 0

CCSDS_OMM_VERS = 2.0
CREATION_DATE  = 
ORIGINATOR     = 

OBJECT_NAME    = CZ-2C R/B
OBJECT_ID      = 2004-012C
CENTER_NAME    = EARTH
REF_FRAME      = TEME
TIME_SYSTEM    = UTC
MEAN_ELEMENT_THEORY = SGP/SGP4

EPOCH          = 2026-04-03T17:18:04.075200
MEAN_MOTION    = 15.67722362
ECCENTRICITY   = .0013605
INCLINATION    = 97.7165
RA_OF_ASC_NODE = 161.4365
ARG_OF_PERICENTER = 211.2967
MEAN_ANOMALY   = 148.7485

EPHEMERIS_TYPE = 0
CLASSIFICATION_TYPE = U
NORAD_CAT_ID   = 28222
ELEMENT_SET_NO = 999
REV_AT_EPOCH   = 20819
BSTAR          = .73316907E-3
MEAN_MOTION_DOT = .81064E-3
MEAN_MOTION_DDOT = 0

CCSDS_OMM_VERS = 2.0
CREATION_DATE  = 
ORIGINATOR     = 

OBJECT_NAME    = SL-16 R/B
OBJECT_ID      = 2004-021B
CENTER_NAME    = EARTH
REF_FRAME      = TEME
TIME_SYSTEM    = UTC
MEAN_ELEMENT_THEORY = SGP/SGP4

EPOCH          = 2026-04-03T16:50:04.039296
MEAN_MOTION    = 14.14599312
ECCENTRICITY   = .0005359
INCLINATION    = 71.0012
RA_OF_ASC_NODE = 180.0052
ARG_OF_PERICENTER = 338.4894
MEAN_ANOMALY   = 21.6002

EPHEMERIS_TYPE = 0
CLASSIFICATION_TYPE = U
NORAD_CAT_ID   = 28353
ELEMENT_SET_NO = 999
REV_AT_EPOCH   = 12637
BSTAR          = .23192E-3
MEAN_MOTION_DOT = .398E-5
MEAN_MOTION_DDOT = 0

CCSDS_OMM_VERS = 2.0
CREATION_DATE  = 
ORIGINATOR     = 

OBJECT_NAME    = CZ-4B R/B
OBJECT_ID      = 2004-035C
CENTER_NAME    = EARTH
REF_FRAME      = TEME
TIME_SYSTEM    = UTC
MEAN_ELEMENT_THEORY = SGP/SGP4

EPOCH          = 2026-04-03T15:25:22.659168
MEAN_MOTION    = 15.29524075
ECCENTRICITY   = .0030266
INCLINATION    = 97.3450
RA_OF_ASC_NODE = 127.5878
ARG_OF_PERICENTER = 238.1218
MEAN_ANOMALY   = 121.7077

EPHEMERIS_TYPE = 0
CLASSIFICATION_TYPE = U
NORAD_CAT_ID   = 28415
ELEMENT_SET_NO = 999
REV_AT_EPOCH   = 18372
BSTAR          = .48915E-3
MEAN_MOTION_DOT = .14127E-3
MEAN_MOTION_DDOT = 0

CCSDS_OMM_VERS = 2.0
CREATION_DATE  = 
ORIGINATOR     = 

OBJECT_NAME    = CZ-2C R/B
OBJECT_ID      = 2004-046B
CENTER_NAME    = EARTH
REF_FRAME      = TEME
TIME_SYSTEM    = UTC
MEAN_ELEMENT_THEORY = SGP/SGP4

EPOCH          = 2026-04-03T17:28:27.198912
MEAN_MOTION    = 14.27002341
ECCENTRICITY   = .0140631
INCLINATION    = 98.1976
RA_OF_ASC_NODE = 7.1519
ARG_OF_PERICENTER = 80.9095
MEAN_ANOMALY   = 280.7969

EPHEMERIS_TYPE = 0
CLASSIFICATION_TYPE = U
NORAD_CAT_ID   = 28480
ELEMENT_SET_NO = 999
REV_AT_EPOCH   = 11207
BSTAR          = .12423E-3
MEAN_MOTION_DOT = .296E-5
MEAN_MOTION_DDOT = 0

CCSDS_OMM_VERS = 2.0
CREATION_DATE  = 
ORIGINATOR     = 

OBJECT_NAME    = ARIANE 5 R/B
OBJECT_ID      = 2004-049H
CENTER_NAME    = EARTH
REF_FRAME      = TEME
TIME_SYSTEM    = UTC
MEAN_ELEMENT_THEORY = SGP/SGP4

EPOCH          = 2026-04-03T21:29:25.364544
MEAN_MOTION    = 14.85317517
ECCENTRICITY   = .00828154
INCLINATION    = 98.2663
RA_OF_ASC_NODE = 263.3028
ARG_OF_PERICENTER = 269.3889
MEAN_ANOMALY   = 89.7835

EPHEMERIS_TYPE = 0
CLASSIFICATION_TYPE = U
NORAD_CAT_ID   = 28499
ELEMENT_SET_NO = 999
REV_AT_EPOCH   = 14953
BSTAR          = .17215743E-3
MEAN_MOTION_DOT = .1507E-4
MEAN_MOTION_DDOT = 0

CCSDS_OMM_VERS = 2.0
CREATION_DATE  = 
ORIGINATOR     = 

OBJECT_NAME    = CZ-2D R/B
OBJECT_ID      = 2005-024B
CENTER_NAME    = EARTH
REF_FRAME      = TEME
TIME_SYSTEM    = UTC
MEAN_ELEMENT_THEORY = SGP/SGP4

EPOCH          = 2026-04-03T23:04:19.516800
MEAN_MOTION    = 15.62621162
ECCENTRICITY   = .0001827
INCLINATION    = 97.3568
RA_OF_ASC_NODE = 110.0757
ARG_OF_PERICENTER = 282.4318
MEAN_ANOMALY   = 77.6736

EPHEMERIS_TYPE = 0
CLASSIFICATION_TYPE = U
NORAD_CAT_ID   = 28738
ELEMENT_SET_NO = 999
REV_AT_EPOCH   = 14372
BSTAR          = .82404825E-3
MEAN_MOTION_DOT = .74033E-3
MEAN_MOTION_DDOT = 0

CCSDS_OMM_VERS = 2.0
CREATION_DATE  = 
ORIGINATOR     = 

OBJECT_NAME    = ALOS (DAICHI)
OBJECT_ID      = 2006-002A
CENTER_NAME    = EARTH
REF_FRAME      = TEME
TIME_SYSTEM    = UTC
MEAN_ELEMENT_THEORY = SGP/SGP4

EPOCH          = 2026-04-03T21:28:41.281536
MEAN_MOTION    = 14.69893925
ECCENTRICITY   = .00011077
INCLINATION    = 98.1261
RA_OF_ASC_NODE = 49.7320
ARG_OF_PERICENTER = 115.1518
MEAN_ANOMALY   = 244.9803

EPHEMERIS_TYPE = 0
CLASSIFICATION_TYPE = U
NORAD_CAT_ID   = 28931
ELEMENT_SET_NO = 999
REV_AT_EPOCH   = 7718
BSTAR          = .43921805E-3
MEAN_MOTION_DOT = .2578E-4
MEAN_MOTION_DDOT = 0

